#cP2024  2 18  0  0  0.00000000     577 d+D   IGS20 EXT AIUB
## 2302      0.00000000   300.00000000 60358 0.0000000000000
+   77   G01G02G03G04G05G06G07G08G10G11G12G13G14G15G16G17G18
+        G19G20G21G22G23G24G25G26G27G28G29G30G31G32R01R02R03
+        R04R05R07R08R09R11R12R13R14R15R16R17R18R19R20R21R22
+        R24E02E03E04E05E07E08E09E10E11E12E13E14E15E18E19E21
+        E24E25E26E27E30E31E33E34E36  0  0  0  0  0  0  0  0
++         6  7  6  6  7  6  7  6  6  7  7  7  5  7  7  7  7
++         7  7  7  7  6  6  6  6  6  6  7  5  7  6  9  7  8
++         8  8  8  7  6  6  6  6  6  7  7  8  7  8  9  8  7
++         8  6  6  6  7  8  7  7  7  7  7  7  6  6  7  7  6
++         6  6  7  5  6  6  7  6  6  0  0  0  0  0  0  0  0
%c M  cc GPS ccc cccc cccc cccc cccc ccccc ccccc ccccc ccccc
%c cc cc ccc ccc cccc cccc cccc cccc ccccc ccccc ccccc ccccc
%f  1.2500000  1.025000000  0.00000000000  0.000000000000000
%f  0.0000000  0.000000000  0.00000000000  0.000000000000000
%i    0    0    0    0      0      0      0      0         0
%i    0    0    0    0      0      0      0      0         0
/* Center for Orbit Determination in Europe (CODE)          
/* Ultra-rapid GRE orbits starting year-day 24049 00 hour   
/* Observed/predicted: 24/24 hours (data used up to 049X)   
/* PCV:IGS20      OL/AL:FES2014b NONE     YN ORB:CoN CLK:BRD
*  2024  2 18 14 25  0.00000000
PG01 -15600.997958 -12152.988725 -18237.655421    170.062355
PG02  -7503.907627 -13806.594736 -20960.000413   -483.501217
PG03 -11739.867601 -23752.579850  -2783.927296    201.105561
PG04  -2888.265687 -19221.268040  18053.575711    294.774318
PG05   3226.367491  22280.292512  13846.278522   -162.278951
PG06 -24028.395187   6236.954688   9663.023099    402.155640
PG07 -24422.622237  -6525.832826   9384.597163    -64.915014
PG08   3058.570360 -23509.964998 -11619.019162   -167.637997
PG10  16405.254568    583.933483 -20747.412566      0.930824
PG11 -14959.836021  12077.734773  18328.961386   -579.996973
PG12   9636.675691  24596.447774  -3374.867093   -479.205085
PG13 -12806.636429  22565.519679  -5291.353413    626.677575
PG14 -18088.208137  -4414.518095 -18987.699083    329.019142
PG15     40.911637  23978.408376 -11684.107668    129.000665
PG16   4242.161789 -19172.816473  17331.393463   -359.910960
PG17 -18450.294182   6068.168323 -17762.148426    716.584099
PG18  24893.792316   5525.549100   7777.325919   -558.298252
PG19 -19534.098854  13478.614721 -11729.293154    442.411384
PG20  -7076.782936  14751.090912  21013.108713    387.032799
PG21  -2156.048768 -14821.150422 -21459.805106    134.479071
PG22 -14651.800404   3879.952411 -21364.595420     29.185426
PG23  18932.929711  12588.675457 -13864.001913    158.856328
PG24   5368.277116  15376.886344 -21431.752928   -433.745690
PG25  16991.157904  19591.304178   6019.582446    488.959095
PG26  11818.880790 -10547.136757  21150.111462    188.883177
PG27  12514.957984 -23154.954116   -520.333967     -5.116975
PG28  25060.646908  -5700.202141   6668.851474   -135.285958
PG29  11226.392887   9971.828992  21852.343285   -606.724730
PG30 -26646.838808   1104.720025  -1307.803531   -430.942926
PG31  19747.364562 -10126.240778  14673.859635   -227.805398
PG32  18345.788840  -9790.370602 -16200.831833   -612.278108
PR01 -11172.763913   2848.898054  22758.100923     77.493356
PR02  -9190.807305  19531.545437  13694.552447    -22.503432
PR03  -1777.175268  25269.223496  -3206.786900     94.747810
PR04   6039.545259  17010.667932 -17996.695443    223.977360
PR05  10832.616438   -298.275903 -23074.793091    127.101898
PR07   1290.517525 -25098.429887   4254.823735     76.101988
PR08  -6426.896337 -16699.785673  18227.509556    -74.450491
PR09   9503.348639  -7000.179052  22618.989581    170.700416
PR11 -18362.110705 -16871.995294   5413.748204     33.922040
PR12 -20368.687892  -7255.560337 -13502.717824     36.879437
PR13 -11487.167283   4845.932061 -22273.499501    -44.478098
PR14   6508.899338  16134.740611 -18642.362267     26.067070
PR15  18916.671162  16659.513288  -3888.109441     82.092338
PR16  20433.398683   7397.520107  13332.631880     23.374418
PR17  -5233.844037  12731.413774  21477.355439     62.289519
PR18  11494.009177   6093.578220  21946.700541    128.011203
PR19  22094.166212  -2023.943383  12585.721760   -266.280699
PR20  21187.664350 -11509.104519  -8240.411172   -108.471660
PR21   5155.446183 -12571.861628 -21589.069823    -77.966068
PR22 -12522.243448  -6161.039948 -21327.657907    108.718824
PR24 -20321.389489  12703.711474   8744.045129    -44.420779
PE02  18712.292550   1110.738407  22900.675120    104.432416
PE03  20873.090451 -10338.601361 -18271.212538    -94.662255
PE04 -15816.860689  24980.743438   1418.972961   -330.221164
PE05  13675.366014  10126.483087 -24214.514132   4721.235657
PE07   1896.238574 -24988.528306  15765.814295   -104.434696
PE08  16166.612549 -24712.526447  -2097.428606   -225.853158
PE09  -2062.784886  24980.027337 -15732.468947   -340.592145
PE10  -6507.477301  15573.776590  24315.609640   -602.910635
PE11   5955.558632  15772.559970  24321.859785   3239.125761
PE12 -16690.057963  13167.782182  20609.670494   -911.795443
PE13  -5216.022570 -15764.337182 -24497.154934    -20.223541
PE14    210.868870 -27335.487426 -17277.397096 999999.999999
PE15  17183.140504 -12918.807185 -20330.584724    -86.513329
PE18   5792.899909  16405.916683  16454.676423 999999.999999
PE19 -20589.004348   8056.897107  19692.359561   -590.870143
PE21 -19556.151928 -19312.135179 -10991.197788   -579.662126
PE24   8584.514695  27126.080140  -8235.344874   -605.197684
PE25  19445.628682  19628.603672  10627.305293      1.056188
PE26 -24609.338769  -9117.289197 -13687.920013    372.428570
PE27  -8986.319093 -27076.328954   7860.035280   -277.869407
PE30   7025.318286 -18601.854623  21903.253209    -10.017063
PE31  -6750.681043  18794.973335 -21853.145432    -16.289485
PE33 -29277.111419   2203.639052   3784.759514      7.787451
PE34  29168.489473  -2599.400759  -4317.069844    -95.335413
PE36  24163.771145   9363.806824  14297.065164   -187.684779
EOF
